{"type": "FeatureCollection", "features": [ {"type": "Feature", "properties": {"norad_id": 34790, "name": "COSMOS 2251 DEB", "group": "cosmos-2251-debris", "lat": 72.40681849384391, "lon": -66.08278000117653, "alt_km": 866.5323000786784, "timestamp": "2025-12-20T14:38:02.364213+00:00", "meta": {"OBJECT_NAME": "COSMOS 2251 DEB", "OBJECT_ID": "1993-036AAT", "EPOCH": "2025-12-20T03:10:44.601024", "MEAN_MOTION": 14.24656104, "ECCENTRICITY": 0.01005224, "INCLINATION": 74.0538, "RA_OF_ASC_NODE": 230.3962, "ARG_OF_PERICENTER": 290.5432, "MEAN_ANOMALY": 224.5062, "EPHEMERIS_TYPE": 0, "CLASSIFICATION_TYPE": "U", "NORAD_CAT_ID": 34790, "ELEMENT_SET_NO": 999, "REV_AT_EPOCH": 86678, "BSTAR": 0.00041671452, "MEAN_MOTION_DOT": 9.95e-06, "MEAN_MOTION_DDOT": 0}, "tle": {"line1": "1 34790U 93036AAT 25354.13246066  .00000995  00000+0  41671-3 0  9995", "line2": "2 34790  74.0538 230.3962 0100522 290.5432 224.5062 14.24656104866781"}}, "geometry": {"type": "Point", "coordinates": [-66.08278000117653, 72.40681849384391]}}, {"type": "Feature", "properties": {"norad_id": 34792, "name": "COSMOS 2251 DEB", "group": "cosmos-2251-debris", "lat": -16.656889539427645, "lon": -20.30874979427531, "alt_km": 705.151276625048, "timestamp": "2025-12-20T14:38:02.364223+00:00", "meta": {"OBJECT_NAME": "COSMOS 2251 DEB", "OBJECT_ID": "1993-036AAV", "EPOCH": "2025-12-19T21:57:35.244000", "MEAN_MOTION": 14.56009561, "ECCENTRICITY": 0.0012436, "INCLINATION": 74.0171, "RA_OF_ASC_NODE": 156.0902, "ARG_OF_PERICENTER": 250.5909, "MEAN_ANOMALY": 266.5704, "EPHEMERIS_TYPE": 0, "CLASSIFICATION_TYPE": "U", "NORAD_CAT_ID": 34792, "ELEMENT_SET_NO": 999, "REV_AT_EPOCH": 87754, "BSTAR": 0.00067786, "MEAN_MOTION_DOT": 2.959e-05, "MEAN_MOTION_DDOT": 0}, "tle": {"line1": "1 34792U 93036AAV 25353.91499125  .00002959  00000+0  67786-3 0  9995", "line2": "2 34792  74.0171 156.0902 0012436 250.5909 266.5704 14.56009561877544"}}, "geometry": {"type": "Point", "coordinates": [-20.30874979427531, -16.656889539427645]}}, {"type": "Feature", "properties": {"norad_id": 34793, "name": "COSMOS 2251 DEB", "group": "cosmos-2251-debris", "lat": -24.363755087860717, "lon": 63.292888911101926, "alt_km": 804.225732128566, "timestamp": "2025-12-20T14:38:02.364233+00:00", "meta": {"OBJECT_NAME": "COSMOS 2251 DEB", "OBJECT_ID": "1993-036AAW", "EPOCH": "2025-12-20T02:34:29.100864", "MEAN_MOTION": 14.38655552, "ECCENTRICITY": 0.00506092, "INCLINATION": 74.0022, "RA_OF_ASC_NODE": 236.7559, "ARG_OF_PERICENTER": 28.9702, "MEAN_ANOMALY": 94.9918, "EPHEMERIS_TYPE": 0, "CLASSIFICATION_TYPE": "U", "NORAD_CAT_ID": 34793, "ELEMENT_SET_NO": 999, "REV_AT_EPOCH": 87436, "BSTAR": 0.00017105085, "MEAN_MOTION_DOT": 5.06e-06, "MEAN_MOTION_DDOT": 0}, "tle": {"line1": "1 34793U 93036AAW 25354.10728126  .00000506  00000+0  17105-3 0  9990", "line2": "2 34793  74.0022 236.7559 0050609  28.9702  94.9918 14.38655552874360"}}, "geometry": {"type": "Point", "coordinates": [63.292888911101926, -24.363755087860717]}}, {"type": "Feature", "properties": {"norad_id": 34796, "name": "COSMOS 2251 DEB", "group": "cosmos-2251-debris", "lat": -40.915952685390664, "lon": 35.96138826060751, "alt_km": 721.8422396878532, "timestamp": "2025-12-20T14:38:02.364243+00:00", "meta": {"OBJECT_NAME": "COSMOS 2251 DEB", "OBJECT_ID": "1993-036AAZ", "EPOCH": "2025-12-19T08:34:23.356992", "MEAN_MOTION": 14.48719322, "ECCENTRICITY": 0.0100258, "INCLINATION": 74.0291, "RA_OF_ASC_NODE": 203.9373, "ARG_OF_PERICENTER": 304.5968, "MEAN_ANOMALY": 229.5737, "EPHEMERIS_TYPE": 0, "CLASSIFICATION_TYPE": "U", "NORAD_CAT_ID": 34796, "ELEMENT_SET_NO": 999, "REV_AT_EPOCH": 88123, "BSTAR": 0.00040539, "MEAN_MOTION_DOT": 1.598e-05, "MEAN_MOTION_DDOT": 0}, "tle": {"line1": "1 34796U 93036AAZ 25353.35721478  .00001598  00000+0  40539-3 0  9991", "line2": "2 34796  74.0291 203.9373 0100258 304.5968 229.5737 14.48719322881230"}}, "geometry": {"type": "Point", "coordinates": [35.96138826060751, -40.915952685390664]}}, {"type": "Feature", "properties": {"norad_id": 34797, "name": "COSMOS 2251 DEB", "group": "cosmos-2251-debris", "lat": -2.0415184729049547, "lon": -94.09082920410945, "alt_km": 702.6600700146519, "timestamp": "2025-12-20T14:38:02.364253+00:00", "meta": {"OBJECT_NAME": "COSMOS 2251 DEB", "OBJECT_ID": "1993-036ABA", "EPOCH": "2025-12-18T13:32:08.695392", "MEAN_MOTION": 14.42903821, "ECCENTRICITY": 0.00713736, "INCLINATION": 73.9783, "RA_OF_ASC_NODE": 89.1324, "ARG_OF_PERICENTER": 201.7042, "MEAN_ANOMALY": 158.1087, "EPHEMERIS_TYPE": 0, "CLASSIFICATION_TYPE": "U", "NORAD_CAT_ID": 34797, "ELEMENT_SET_NO": 999, "REV_AT_EPOCH": 87499, "BSTAR": 0.0016985088, "MEAN_MOTION_DOT": 5.83e-05, "MEAN_MOTION_DDOT": 0}, "tle": {"line1": "1 34797U 93036ABA 25352.56398953  .00005830  00000+0  16985-2 0  9992", "line2": "2 34797  73.9783  89.1324 0071373 201.7042 158.1087 14.42903821874994"}}, "geometry": {"type": "Point", "coordinates": [-94.09082920410945, -2.0415184729049547]}}, {"type": "Feature", "properties": {"norad_id": 34814, "name": "COSMOS 2251 DEB", "group": "cosmos-2251-debris", "lat": -3.06846528495552, "lon": -50.04510770459174, "alt_km": 808.6585114052959, "timestamp": "2025-12-20T14:38:02.364263+00:00", "meta": {"OBJECT_NAME": "COSMOS 2251 DEB", "OBJECT_ID": "1993-036ABD", "EPOCH": "2025-12-19T05:31:29.279136", "MEAN_MOTION": 14.36920204, "ECCENTRICITY": 0.0055801, "INCLINATION": 73.8955, "RA_OF_ASC_NODE": 313.3995, "ARG_OF_PERICENTER": 201.6283, "MEAN_ANOMALY": 221.5963, "EPHEMERIS_TYPE": 0, "CLASSIFICATION_TYPE": "U", "NORAD_CAT_ID": 34814, "ELEMENT_SET_NO": 999, "REV_AT_EPOCH": 87426, "BSTAR": 0.00051306, "MEAN_MOTION_DOT": 1.519e-05, "MEAN_MOTION_DDOT": 0}, "tle": {"line1": "1 34814U 93036ABD 25353.23019999  .00001519  00000+0  51306-3 0  9994", "line2": "2 34814  73.8955 313.3995 0055801 201.6283 221.5963 14.36920204874269"}}, "geometry": {"type": "Point", "coordinates": [-50.04510770459174, -3.06846528495552]}}, {"type": "Feature", "properties": {"norad_id": 34815, "name": "COSMOS 2251 DEB", "group": "cosmos-2251-debris", "lat": -60.343609153135, "lon": 76.51122889612277, "alt_km": 614.0742437584177, "timestamp": "2025-12-20T14:38:02.364273+00:00", "meta": {"OBJECT_NAME": "COSMOS 2251 DEB", "OBJECT_ID": "1993-036ABE", "EPOCH": "2025-12-20T02:09:26.964288", "MEAN_MOTION": 14.78391342, "ECCENTRICITY": 0.00588111, "INCLINATION": 74.0443, "RA_OF_ASC_NODE": 227.3677, "ARG_OF_PERICENTER": 294.92, "MEAN_ANOMALY": 64.587, "EPHEMERIS_TYPE": 0, "CLASSIFICATION_TYPE": "U", "NORAD_CAT_ID": 34815, "ELEMENT_SET_NO": 999, "REV_AT_EPOCH": 88736, "BSTAR": 0.00047092478, "MEAN_MOTION_DOT": 3.495e-05, "MEAN_MOTION_DDOT": 0}, "tle": {"line1": "1 34815U 93036ABE 25354.08989542  .00003495  00000+0  47092-3 0  9991", "line2": "2 34815  74.0443 227.3677 0058811 294.9200  64.5870 14.78391342887362"}}, "geometry": {"type": "Point", "coordinates": [76.51122889612277, -60.343609153135]}}, {"type": "Feature", "properties": {"norad_id": 34816, "name": "COSMOS 2251 DEB", "group": "cosmos-2251-debris", "lat": 35.72592972060027, "lon": 142.2808143669148, "alt_km": 1289.8327538098483, "timestamp": "2025-12-20T14:38:02.364283+00:00", "meta": {"OBJECT_NAME": "COSMOS 2251 DEB", "OBJECT_ID": "1993-036ABF", "EPOCH": "2025-12-19T19:45:52.299072", "MEAN_MOTION": 13.58341455, "ECCENTRICITY": 0.03732066, "INCLINATION": 73.8867, "RA_OF_ASC_NODE": 131.5634, "ARG_OF_PERICENTER": 194.8145, "MEAN_ANOMALY": 321.2377, "EPHEMERIS_TYPE": 0, "CLASSIFICATION_TYPE": "U", "NORAD_CAT_ID": 34816, "ELEMENT_SET_NO": 999, "REV_AT_EPOCH": 82879, "BSTAR": 0.00094697694, "MEAN_MOTION_DOT": 1.062e-05, "MEAN_MOTION_DDOT": 0}, "tle": {"line1": "1 34816U 93036ABF 25353.82352198  .00001062  00000+0  94698-3 0  9996", "line2": "2 34816  73.8867 131.5634 0373206 194.8145 321.2377 13.58341455828797"}}, "geometry": {"type": "Point", "coordinates": [142.2808143669148, 35.72592972060027]}}, {"type": "Feature", "properties": {"norad_id": 34818, "name": "COSMOS 2251 DEB", "group": "cosmos-2251-debris", "lat": 64.65178956939434, "lon": -40.35567237226498, "alt_km": 756.9247023359567, "timestamp": "2025-12-20T14:38:02.364292+00:00", "meta": {"OBJECT_NAME": "COSMOS 2251 DEB", "OBJECT_ID": "1993-036ABH", "EPOCH": "2025-12-18T20:48:35.786304", "MEAN_MOTION": 14.3697434, "ECCENTRICITY": 0.00244833, "INCLINATION": 74.036, "RA_OF_ASC_NODE": 285.6723, "ARG_OF_PERICENTER": 359.9167, "MEAN_ANOMALY": 58.515, "EPHEMERIS_TYPE": 0, "CLASSIFICATION_TYPE": "U", "NORAD_CAT_ID": 34818, "ELEMENT_SET_NO": 999, "REV_AT_EPOCH": 87458, "BSTAR": 0.00016248256, "MEAN_MOTION_DOT": 4.57e-06, "MEAN_MOTION_DDOT": 0}, "tle": {"line1": "1 34818U 93036ABH 25352.86708086  .00000457  00000+0  16248-3 0  9994", "line2": "2 34818  74.0360 285.6723 0024483 359.9167  58.5150 14.36974340874587"}}, "geometry": {"type": "Point", "coordinates": [-40.35567237226498, 64.65178956939434]}}, {"type": "Feature", "properties": {"norad_id": 34819, "name": "COSMOS 2251 DEB", "group": "cosmos-2251-debris", "lat": 31.971610139053247, "lon": 137.83427946138002, "alt_km": 688.7181670775963, "timestamp": "2025-12-20T14:38:02.364303+00:00", "meta": {"OBJECT_NAME": "COSMOS 2251 DEB", "OBJECT_ID": "1993-036ABJ", "EPOCH": "2025-12-19T10:51:51.426720", "MEAN_MOTION": 14.64061618, "ECCENTRICITY": 0.0015559, "INCLINATION": 74.0175, "RA_OF_ASC_NODE": 129.7528, "ARG_OF_PERICENTER": 224.5883, "MEAN_ANOMALY": 192.9027, "EPHEMERIS_TYPE": 0, "CLASSIFICATION_TYPE": "U", "NORAD_CAT_ID": 34819, "ELEMENT_SET_NO": 999, "REV_AT_EPOCH": 88327, "BSTAR": 0.0010599, "MEAN_MOTION_DOT": 5.546e-05, "MEAN_MOTION_DDOT": 0}, "tle": {"line1": "1 34819U 93036ABJ 25353.45267855  .00005546  00000+0  10599-2 0  9991", "line2": "2 34819  74.0175 129.7528 0015559 224.5883 192.9027 14.64061618883277"}}, "geometry": {"type": "Point", "coordinates": [137.83427946138002, 31.971610139053247]}}]}